{
  "type": "FeatureCollection",
  "features": [
    {
      "type": "Feature",
      "properties": {
        "norad_id": 36744,
        "name": "COMS 1",
        "group": "weather",
        "lat": -3.8992199373600824,
        "lon": -38.177647481449185,
        "alt_km": 35783.50981217726,
        "timestamp": "2025-12-09T07:41:32.844680+00:00",
        "meta_object_name": "COMS 1",
        "meta_object_id": "2010-032A",
        "meta_epoch": "2025-12-08T17:38:17.054304",
        "meta_mean_motion": 1.00270994,
        "meta_eccentricity": 0.00011239,
        "meta_inclination": 4.3314,
        "meta_ra_of_asc_node": 78.0431,
        "meta_arg_of_pericenter": 199.5268,
        "meta_mean_anomaly": 192.9144,
        "meta_ephemeris_type": 0,
        "meta_classification_type": "U",
        "meta_norad_cat_id": 36744,
        "meta_element_set_no": 999,
        "meta_rev_at_epoch": 4918,
        "meta_bstar": 0,
        "meta_mean_motion_dot": -3.43e-06,
        "meta_mean_motion_ddot": 0,
        "tle_line1": "1 36744U 10032A   25342.73491961 -.00000343  00000+0  00000+0 0  9995",
        "tle_line2": "2 36744   4.3314  78.0431 0001123 199.5268 192.9144  1.00270994 49185"
      },
      "geometry": {
        "type": "Point",
        "coordinates": [
          -38.177647481449185,
          -3.8992199373600824
        ]
      }
    },
    {
      "type": "Feature",
      "properties": {
        "norad_id": 37214,
        "name": "FENGYUN 3B",
        "group": "weather",
        "lat": -80.9759315317511,
        "lon": 117.80625495500192,
        "alt_km": 852.6368604230802,
        "timestamp": "2025-12-09T07:41:32.844692+00:00",
        "meta_object_name": "FENGYUN 3B",
        "meta_object_id": "2010-059A",
        "meta_epoch": "2025-12-09T00:10:27.084288",
        "meta_mean_motion": 14.1478665,
        "meta_eccentricity": 0.00222671,
        "meta_inclination": 98.9907,
        "meta_ra_of_asc_node": 22.9581,
        "meta_arg_of_pericenter": 8.4441,
        "meta_mean_anomaly": 106.4723,
        "meta_ephemeris_type": 0,
        "meta_classification_type": "U",
        "meta_norad_cat_id": 37214,
        "meta_element_set_no": 999,
        "meta_rev_at_epoch": 78053,
        "meta_bstar": -6.50314e-05,
        "meta_mean_motion_dot": -1.71e-06,
        "meta_mean_motion_ddot": 0,
        "tle_line1": "1 37214U 10059A   25343.00725792 -.00000171  00000+0 -65031-4 0  9990",
        "tle_line2": "2 37214  98.9907  22.9581 0022267   8.4441 106.4723 14.14786650780536"
      },
      "geometry": {
        "type": "Point",
        "coordinates": [
          117.80625495500192,
          -80.9759315317511
        ]
      }
    },
    {
      "type": "Feature",
      "properties": {
        "norad_id": 37849,
        "name": "SUOMI NPP",
        "group": "weather",
        "lat": 51.37600991623502,
        "lon": -90.45618331943608,
        "alt_km": 821.7723195357121,
        "timestamp": "2025-12-09T07:41:32.844703+00:00",
        "meta_object_name": "SUOMI NPP",
        "meta_object_id": "2011-061A",
        "meta_epoch": "2025-12-08T22:59:19.905792",
        "meta_mean_motion": 14.19512366,
        "meta_eccentricity": 0.00021172,
        "meta_inclination": 98.7768,
        "meta_ra_of_asc_node": 280.3336,
        "meta_arg_of_pericenter": 126.8179,
        "meta_mean_anomaly": 233.3191,
        "meta_ephemeris_type": 0,
        "meta_classification_type": "U",
        "meta_norad_cat_id": 37849,
        "meta_element_set_no": 999,
        "meta_rev_at_epoch": 73145,
        "meta_bstar": 9.892512e-05,
        "meta_mean_motion_dot": 1.64e-06,
        "meta_mean_motion_ddot": 0,
        "tle_line1": "1 37849U 11061A   25342.95786928  .00000164  00000+0  98925-4 0  9997",
        "tle_line2": "2 37849  98.7768 280.3336 0002117 126.8179 233.3191 14.19512366731458"
      },
      "geometry": {
        "type": "Point",
        "coordinates": [
          -90.45618331943608,
          51.37600991623502
        ]
      }
    },
    {
      "type": "Feature",
      "properties": {
        "norad_id": 38552,
        "name": "METEOSAT-10 (MSG-3)",
        "group": "weather",
        "lat": 3.1227049093540913,
        "lon": -166.0867824632614,
        "alt_km": 35786.12255177883,
        "timestamp": "2025-12-09T07:41:32.844716+00:00",
        "meta_object_name": "METEOSAT-10 (MSG-3)",
        "meta_object_id": "2012-035B",
        "meta_epoch": "2025-12-08T22:09:52.294752",
        "meta_mean_motion": 1.00273781,
        "meta_eccentricity": 8.733e-05,
        "meta_inclination": 4.2201,
        "meta_ra_of_asc_node": 61.7306,
        "meta_arg_of_pericenter": 238.4203,
        "meta_mean_anomaly": 110.3791,
        "meta_ephemeris_type": 0,
        "meta_classification_type": "U",
        "meta_norad_cat_id": 38552,
        "meta_element_set_no": 999,
        "meta_rev_at_epoch": 4894,
        "meta_bstar": 0,
        "meta_mean_motion_dot": -5e-08,
        "meta_mean_motion_ddot": 0,
        "tle_line1": "1 38552U 12035B   25342.92352193 -.00000005  00000+0  00000+0 0  9998",
        "tle_line2": "2 38552   4.2201  61.7306 0000873 238.4203 110.3791  1.00273781 48943"
      },
      "geometry": {
        "type": "Point",
        "coordinates": [
          -166.0867824632614,
          3.1227049093540913
        ]
      }
    },
    {
      "type": "Feature",
      "properties": {
        "norad_id": 38771,
        "name": "METOP-B",
        "group": "weather",
        "lat": -60.212037045006994,
        "lon": -162.14151185957292,
        "alt_km": 827.7101225072765,
        "timestamp": "2025-12-09T07:41:32.844727+00:00",
        "meta_object_name": "METOP-B",
        "meta_object_id": "2012-049A",
        "meta_epoch": "2025-12-08T23:48:10.786464",
        "meta_mean_motion": 14.21406106,
        "meta_eccentricity": 0.00027534,
        "meta_inclination": 98.6804,
        "meta_ra_of_asc_node": 33.014,
        "meta_arg_of_pericenter": 152.3576,
        "meta_mean_anomaly": 207.7748,
        "meta_ephemeris_type": 0,
        "meta_classification_type": "U",
        "meta_norad_cat_id": 38771,
        "meta_element_set_no": 999,
        "meta_rev_at_epoch": 68624,
        "meta_bstar": 0.00011673918,
        "meta_mean_motion_dot": 2.11e-06,
        "meta_mean_motion_ddot": 0,
        "tle_line1": "1 38771U 12049A   25342.99179151  .00000211  00000+0  11674-3 0  9995",
        "tle_line2": "2 38771  98.6804  33.0140 0002753 152.3576 207.7748 14.21406106686246"
      },
      "geometry": {
        "type": "Point",
        "coordinates": [
          -162.14151185957292,
          -60.212037045006994
        ]
      }
    },
    {
      "type": "Feature",
      "properties": {
        "norad_id": 39216,
        "name": "INSAT-3D",
        "group": "weather",
        "lat": -1.2289614620329667,
        "lon": -36.74475261203239,
        "alt_km": 35784.686734132345,
        "timestamp": "2025-12-09T07:41:32.844739+00:00",
        "meta_object_name": "INSAT-3D",
        "meta_object_id": "2013-038B",
        "meta_epoch": "2025-12-08T22:46:48.758016",
        "meta_mean_motion": 1.00271425,
        "meta_eccentricity": 0.0001672,
        "meta_inclination": 1.4352,
        "meta_ra_of_asc_node": 85.0274,
        "meta_arg_of_pericenter": 162.1102,
        "meta_mean_anomaly": 302.0591,
        "meta_ephemeris_type": 0,
        "meta_classification_type": "U",
        "meta_norad_cat_id": 39216,
        "meta_element_set_no": 999,
        "meta_rev_at_epoch": 4517,
        "meta_bstar": 0,
        "meta_mean_motion_dot": -3.37e-06,
        "meta_mean_motion_ddot": 0,
        "tle_line1": "1 39216U 13038B   25342.94917544 -.00000337  00000+0  00000+0 0  9997",
        "tle_line2": "2 39216   1.4352  85.0274 0001672 162.1102 302.0591  1.00271425 45172"
      },
      "geometry": {
        "type": "Point",
        "coordinates": [
          -36.74475261203239,
          -1.2289614620329667
        ]
      }
    },
    {
      "type": "Feature",
      "properties": {
        "norad_id": 39260,
        "name": "FENGYUN 3C",
        "group": "weather",
        "lat": -18.465828616571144,
        "lon": 138.31266294183234,
        "alt_km": 834.8615603701019,
        "timestamp": "2025-12-09T07:41:32.844750+00:00",
        "meta_object_name": "FENGYUN 3C",
        "meta_object_id": "2013-052A",
        "meta_epoch": "2025-12-08T22:16:32.812320",
        "meta_mean_motion": 14.15694375,
        "meta_eccentricity": 0.00140736,
        "meta_inclination": 98.4759,
        "meta_ra_of_asc_node": 320.7937,
        "meta_arg_of_pericenter": 207.3713,
        "meta_mean_anomaly": 152.6722,
        "meta_ephemeris_type": 0,
        "meta_classification_type": "U",
        "meta_norad_cat_id": 39260,
        "meta_element_set_no": 999,
        "meta_rev_at_epoch": 63164,
        "meta_bstar": 0.00011763899,
        "meta_mean_motion_dot": 1.9e-06,
        "meta_mean_motion_ddot": 0,
        "tle_line1": "1 39260U 13052A   25342.92815755  .00000190  00000+0  11764-3 0  9990",
        "tle_line2": "2 39260  98.4759 320.7937 0014073 207.3713 152.6722 14.15694375631643"
      },
      "geometry": {
        "type": "Point",
        "coordinates": [
          138.31266294183234,
          -18.465828616571144
        ]
      }
    }
  ]
}